{
  "type": "FeatureCollection",
  "features": [
    {
      "type": "Feature",
      "properties": {
        "norad_id": 34036,
        "name": "COSMOS 2251 DEB",
        "group": "cosmos-2251-debris",
        "lat": 39.75645439502884,
        "lon": -70.26664885031114,
        "alt_km": 569.3029773525905,
        "timestamp": "2025-12-25T11:37:44.833020+00:00",
        "meta_object_name": "COSMOS 2251 DEB",
        "meta_object_id": "1993-036HX",
        "meta_epoch": "2025-12-24T12:32:35.625120",
        "meta_mean_motion": 14.95894376,
        "meta_eccentricity": 0.00097561,
        "meta_inclination": 74.0206,
        "meta_ra_of_asc_node": 125.4677,
        "meta_arg_of_pericenter": 153.3579,
        "meta_mean_anomaly": 206.8109,
        "meta_ephemeris_type": 0,
        "meta_classification_type": "U",
        "meta_norad_cat_id": 34036,
        "meta_element_set_no": 999,
        "meta_rev_at_epoch": 88746,
        "meta_bstar": 0.0042989752,
        "meta_mean_motion_dot": 0.00048446,
        "meta_mean_motion_ddot": 0,
        "tle_line1": "1 34036U 93036HX  25358.52263455  .00048446  00000+0  42990-2 0  9993",
        "tle_line2": "2 34036  74.0206 125.4677 0009756 153.3579 206.8109 14.95894376887464"
      },
      "geometry": {
        "type": "Point",
        "coordinates": [
          -70.26664885031114,
          39.75645439502884
        ]
      }
    },
    {
      "type": "Feature",
      "properties": {
        "norad_id": 34037,
        "name": "COSMOS 2251 DEB",
        "group": "cosmos-2251-debris",
        "lat": -63.63020828024546,
        "lon": -8.112786041955756,
        "alt_km": 812.011359848093,
        "timestamp": "2025-12-25T11:37:44.833030+00:00",
        "meta_object_name": "COSMOS 2251 DEB",
        "meta_object_id": "1993-036HY",
        "meta_epoch": "2025-12-25T03:34:56.489088",
        "meta_mean_motion": 14.34695371,
        "meta_eccentricity": 0.0051816,
        "meta_inclination": 74.0509,
        "meta_ra_of_asc_node": 27.7295,
        "meta_arg_of_pericenter": 73.8728,
        "meta_mean_anomaly": 286.8119,
        "meta_ephemeris_type": 0,
        "meta_classification_type": "U",
        "meta_norad_cat_id": 34037,
        "meta_element_set_no": 999,
        "meta_rev_at_epoch": 87895,
        "meta_bstar": 0.00042356,
        "meta_mean_motion_dot": 1.192e-05,
        "meta_mean_motion_ddot": 0,
        "tle_line1": "1 34037U 93036HY  25359.14926492  .00001192  00000+0  42356-3 0  9994",
        "tle_line2": "2 34037  74.0509  27.7295 0051816  73.8728 286.8119 14.34695371878957"
      },
      "geometry": {
        "type": "Point",
        "coordinates": [
          -8.112786041955756,
          -63.63020828024546
        ]
      }
    },
    {
      "type": "Feature",
      "properties": {
        "norad_id": 34040,
        "name": "COSMOS 2251 DEB",
        "group": "cosmos-2251-debris",
        "lat": 23.453045065561266,
        "lon": 51.975390498094626,
        "alt_km": 780.5354096701822,
        "timestamp": "2025-12-25T11:37:44.833041+00:00",
        "meta_object_name": "COSMOS 2251 DEB",
        "meta_object_id": "1993-036JB",
        "meta_epoch": "2025-12-24T21:28:53.823360",
        "meta_mean_motion": 13.68395291,
        "meta_eccentricity": 0.0343443,
        "meta_inclination": 73.9555,
        "meta_ra_of_asc_node": 45.7775,
        "meta_arg_of_pericenter": 356.6901,
        "meta_mean_anomaly": 3.194,
        "meta_ephemeris_type": 0,
        "meta_classification_type": "U",
        "meta_norad_cat_id": 34040,
        "meta_element_set_no": 999,
        "meta_rev_at_epoch": 83766,
        "meta_bstar": 0.00078238,
        "meta_mean_motion_dot": 9.87e-06,
        "meta_mean_motion_ddot": 0,
        "tle_line1": "1 34040U 93036JB  25358.89506740  .00000987  00000+0  78238-3 0  9998",
        "tle_line2": "2 34040  73.9555  45.7775 0343443 356.6901   3.1940 13.68395291837667"
      },
      "geometry": {
        "type": "Point",
        "coordinates": [
          51.975390498094626,
          23.453045065561266
        ]
      }
    },
    {
      "type": "Feature",
      "properties": {
        "norad_id": 34045,
        "name": "COSMOS 2251 DEB",
        "group": "cosmos-2251-debris",
        "lat": -49.182912725105666,
        "lon": -91.8383525919774,
        "alt_km": 775.083087403923,
        "timestamp": "2025-12-25T11:37:44.833051+00:00",
        "meta_object_name": "COSMOS 2251 DEB",
        "meta_object_id": "1993-036JG",
        "meta_epoch": "2025-12-25T04:00:22.809024",
        "meta_mean_motion": 14.34075682,
        "meta_eccentricity": 0.0026178,
        "meta_inclination": 74.0396,
        "meta_ra_of_asc_node": 288.093,
        "meta_arg_of_pericenter": 8.2299,
        "meta_mean_anomaly": 101.0927,
        "meta_ephemeris_type": 0,
        "meta_classification_type": "U",
        "meta_norad_cat_id": 34045,
        "meta_element_set_no": 999,
        "meta_rev_at_epoch": 88211,
        "meta_bstar": 0.00010448,
        "meta_mean_motion_dot": 2.67e-06,
        "meta_mean_motion_ddot": 0,
        "tle_line1": "1 34045U 93036JG  25359.16693066  .00000267  00000+0  10448-3 0  9992",
        "tle_line2": "2 34045  74.0396 288.0930 0026178   8.2299 101.0927 14.34075682882111"
      },
      "geometry": {
        "type": "Point",
        "coordinates": [
          -91.8383525919774,
          -49.182912725105666
        ]
      }
    },
    {
      "type": "Feature",
      "properties": {
        "norad_id": 34046,
        "name": "COSMOS 2251 DEB",
        "group": "cosmos-2251-debris",
        "lat": 29.772127671227594,
        "lon": 157.25214562204704,
        "alt_km": 727.6476718352969,
        "timestamp": "2025-12-25T11:37:44.833061+00:00",
        "meta_object_name": "COSMOS 2251 DEB",
        "meta_object_id": "1993-036JH",
        "meta_epoch": "2025-12-24T23:29:04.134048",
        "meta_mean_motion": 14.46571468,
        "meta_eccentricity": 0.0074544,
        "meta_inclination": 74.0399,
        "meta_ra_of_asc_node": 347.619,
        "meta_arg_of_pericenter": 67.423,
        "meta_mean_anomaly": 326.3926,
        "meta_ephemeris_type": 0,
        "meta_classification_type": "U",
        "meta_norad_cat_id": 34046,
        "meta_element_set_no": 999,
        "meta_rev_at_epoch": 88003,
        "meta_bstar": 0.0013905,
        "meta_mean_motion_dot": 5.165e-05,
        "meta_mean_motion_ddot": 0,
        "tle_line1": "1 34046U 93036JH  25358.97852007  .00005165  00000+0  13905-2 0  9995",
        "tle_line2": "2 34046  74.0399 347.6190 0074544  67.4230 326.3926 14.46571468880033"
      },
      "geometry": {
        "type": "Point",
        "coordinates": [
          157.25214562204704,
          29.772127671227594
        ]
      }
    },
    {
      "type": "Feature",
      "properties": {
        "norad_id": 34050,
        "name": "COSMOS 2251 DEB",
        "group": "cosmos-2251-debris",
        "lat": -53.49784313570203,
        "lon": -169.137160323012,
        "alt_km": 1068.7483599746292,
        "timestamp": "2025-12-25T11:37:44.833071+00:00",
        "meta_object_name": "COSMOS 2251 DEB",
        "meta_object_id": "1993-036JM",
        "meta_epoch": "2025-12-24T18:11:16.265760",
        "meta_mean_motion": 13.96208292,
        "meta_eccentricity": 0.0214816,
        "meta_inclination": 74.0883,
        "meta_ra_of_asc_node": 349.436,
        "meta_arg_of_pericenter": 50.6849,
        "meta_mean_anomaly": 134.9519,
        "meta_ephemeris_type": 0,
        "meta_classification_type": "U",
        "meta_norad_cat_id": 34050,
        "meta_element_set_no": 999,
        "meta_rev_at_epoch": 85599,
        "meta_bstar": 0.00075542186,
        "meta_mean_motion_dot": 1.239e-05,
        "meta_mean_motion_ddot": 0,
        "tle_line1": "1 34050U 93036JM  25358.75782715  .00001239  00000+0  75542-3 0  9998",
        "tle_line2": "2 34050  74.0883 349.4360 0214816  50.6849 134.9519 13.96208292855997"
      },
      "geometry": {
        "type": "Point",
        "coordinates": [
          -169.137160323012,
          -53.49784313570203
        ]
      }
    },
    {
      "type": "Feature",
      "properties": {
        "norad_id": 34053,
        "name": "COSMOS 2251 DEB",
        "group": "cosmos-2251-debris",
        "lat": -31.064705741976347,
        "lon": 51.691039431642366,
        "alt_km": 1365.779829824909,
        "timestamp": "2025-12-25T11:37:44.833082+00:00",
        "meta_object_name": "COSMOS 2251 DEB",
        "meta_object_id": "1993-036JQ",
        "meta_epoch": "2025-12-24T23:53:46.040928",
        "meta_mean_motion": 13.49179154,
        "meta_eccentricity": 0.0422866,
        "meta_inclination": 73.8428,
        "meta_ra_of_asc_node": 222.4216,
        "meta_arg_of_pericenter": 8.9589,
        "meta_mean_anomaly": 351.876,
        "meta_ephemeris_type": 0,
        "meta_classification_type": "U",
        "meta_norad_cat_id": 34053,
        "meta_element_set_no": 999,
        "meta_rev_at_epoch": 82849,
        "meta_bstar": 0.00056348,
        "meta_mean_motion_dot": 5.93e-06,
        "meta_mean_motion_ddot": 0,
        "tle_line1": "1 34053U 93036JQ  25358.99567177  .00000593  00000+0  56348-3 0  9995",
        "tle_line2": "2 34053  73.8428 222.4216 0422866   8.9589 351.8760 13.49179154828490"
      },
      "geometry": {
        "type": "Point",
        "coordinates": [
          51.691039431642366,
          -31.064705741976347
        ]
      }
    }
  ]
}